{
  "type": "FeatureCollection",
  "features": [
    {
      "type": "Feature",
      "properties": {
        "norad_id": 30080,
        "name": "FENGYUN 1C DEB",
        "group": "fengyun-1c-debris",
        "lat": -0.2857226893967464,
        "lon": -30.56132953855007,
        "alt_km": 802.4612889164073,
        "timestamp": "2025-12-14T22:38:41.031669+00:00",
        "meta_object_name": "FENGYUN 1C DEB",
        "meta_object_id": "1999-025QH",
        "meta_epoch": "2025-12-14T05:40:54.867360",
        "meta_mean_motion": 14.10823492,
        "meta_eccentricity": 0.01338138,
        "meta_inclination": 98.6984,
        "meta_ra_of_asc_node": 328.7105,
        "meta_arg_of_pericenter": 56.3717,
        "meta_mean_anomaly": 316.9714,
        "meta_ephemeris_type": 0,
        "meta_classification_type": "U",
        "meta_norad_cat_id": 30080,
        "meta_element_set_no": 999,
        "meta_rev_at_epoch": 97259,
        "meta_bstar": 0.00042536815,
        "meta_mean_motion_dot": 7.87e-06,
        "meta_mean_motion_ddot": 0,
        "tle_line1": "1 30080U 99025QH  25348.23674615  .00000787  00000+0  42537-3 0  9997",
        "tle_line2": "2 30080  98.6984 328.7105 0133813  56.3717 316.9714 14.10823492972598"
      },
      "geometry": {
        "type": "Point",
        "coordinates": [
          -30.56132953855007,
          -0.2857226893967464
        ]
      }
    },
    {
      "type": "Feature",
      "properties": {
        "norad_id": 30081,
        "name": "FENGYUN 1C DEB",
        "group": "fengyun-1c-debris",
        "lat": 77.60832969788494,
        "lon": -149.1985064941605,
        "alt_km": 924.1939458659863,
        "timestamp": "2025-12-14T22:38:41.031679+00:00",
        "meta_object_name": "FENGYUN 1C DEB",
        "meta_object_id": "1999-025QJ",
        "meta_epoch": "2025-12-14T00:10:19.183872",
        "meta_mean_motion": 13.98279967,
        "meta_eccentricity": 0.0075881,
        "meta_inclination": 98.9228,
        "meta_ra_of_asc_node": 344.2449,
        "meta_arg_of_pericenter": 335.7496,
        "meta_mean_anomaly": 91.2582,
        "meta_ephemeris_type": 0,
        "meta_classification_type": "U",
        "meta_norad_cat_id": 30081,
        "meta_element_set_no": 999,
        "meta_rev_at_epoch": 96372,
        "meta_bstar": 0.00070709548,
        "meta_mean_motion_dot": 9.9e-06,
        "meta_mean_motion_ddot": 0,
        "tle_line1": "1 30081U 99025QJ  25348.00716648  .00000990  00000+0  70710-3 0  9996",
        "tle_line2": "2 30081  98.9228 344.2449 0075881 335.7496  91.2582 13.98279967963723"
      },
      "geometry": {
        "type": "Point",
        "coordinates": [
          -149.1985064941605,
          77.60832969788494
        ]
      }
    },
    {
      "type": "Feature",
      "properties": {
        "norad_id": 30082,
        "name": "FENGYUN 1C DEB",
        "group": "fengyun-1c-debris",
        "lat": -8.85095560060974,
        "lon": 95.65399600555295,
        "alt_km": 482.5414054701823,
        "timestamp": "2025-12-14T22:38:41.031690+00:00",
        "meta_object_name": "FENGYUN 1C DEB",
        "meta_object_id": "1999-025QK",
        "meta_epoch": "2025-12-14T07:33:09.973728",
        "meta_mean_motion": 15.1520692,
        "meta_eccentricity": 0.00698504,
        "meta_inclination": 98.8175,
        "meta_ra_of_asc_node": 276.3103,
        "meta_arg_of_pericenter": 160.9879,
        "meta_mean_anomaly": 199.3981,
        "meta_ephemeris_type": 0,
        "meta_classification_type": "U",
        "meta_norad_cat_id": 30082,
        "meta_element_set_no": 999,
        "meta_rev_at_epoch": 1317,
        "meta_bstar": 0.0012299685,
        "meta_mean_motion_dot": 0.00024543,
        "meta_mean_motion_ddot": 0,
        "tle_line1": "1 30082U 99025QK  25348.31469877  .00024543  00000+0  12300-2 0  9990",
        "tle_line2": "2 30082  98.8175 276.3103 0069850 160.9879 199.3981 15.15206920 13176"
      },
      "geometry": {
        "type": "Point",
        "coordinates": [
          95.65399600555295,
          -8.85095560060974
        ]
      }
    },
    {
      "type": "Feature",
      "properties": {
        "norad_id": 30086,
        "name": "FENGYUN 1C DEB",
        "group": "fengyun-1c-debris",
        "lat": -67.45136498351968,
        "lon": 44.7817246145342,
        "alt_km": 930.5122845649557,
        "timestamp": "2025-12-14T22:38:41.031700+00:00",
        "meta_object_name": "FENGYUN 1C DEB",
        "meta_object_id": "1999-025QP",
        "meta_epoch": "2025-12-14T01:02:08.517696",
        "meta_mean_motion": 14.03830638,
        "meta_eccentricity": 0.00618207,
        "meta_inclination": 98.9102,
        "meta_ra_of_asc_node": 21.7002,
        "meta_arg_of_pericenter": 130.9977,
        "meta_mean_anomaly": 291.8219,
        "meta_ephemeris_type": 0,
        "meta_classification_type": "U",
        "meta_norad_cat_id": 30086,
        "meta_element_set_no": 999,
        "meta_rev_at_epoch": 96714,
        "meta_bstar": 0.00066795714,
        "meta_mean_motion_dot": 1.028e-05,
        "meta_mean_motion_ddot": 0,
        "tle_line1": "1 30086U 99025QP  25348.04315414  .00001028  00000+0  66796-3 0  9993",
        "tle_line2": "2 30086  98.9102  21.7002 0061820 130.9977 291.8219 14.03830638967148"
      },
      "geometry": {
        "type": "Point",
        "coordinates": [
          44.7817246145342,
          -67.45136498351968
        ]
      }
    },
    {
      "type": "Feature",
      "properties": {
        "norad_id": 30087,
        "name": "FENGYUN 1C DEB",
        "group": "fengyun-1c-debris",
        "lat": 81.2949022619006,
        "lon": -53.19423096700822,
        "alt_km": 617.8895682004741,
        "timestamp": "2025-12-14T22:38:41.031710+00:00",
        "meta_object_name": "FENGYUN 1C DEB",
        "meta_object_id": "1999-025QQ",
        "meta_epoch": "2025-12-14T02:28:04.328832",
        "meta_mean_motion": 14.35705541,
        "meta_eccentricity": 0.02303433,
        "meta_inclination": 98.3806,
        "meta_ra_of_asc_node": 20.3106,
        "meta_arg_of_pericenter": 117.3173,
        "meta_mean_anomaly": 308.8319,
        "meta_ephemeris_type": 0,
        "meta_classification_type": "U",
        "meta_norad_cat_id": 30087,
        "meta_element_set_no": 999,
        "meta_rev_at_epoch": 98715,
        "meta_bstar": 0.00032593308,
        "meta_mean_motion_dot": 1.225e-05,
        "meta_mean_motion_ddot": 0,
        "tle_line1": "1 30087U 99025QQ  25348.10282788  .00001225  00000+0  32593-3 0  9995",
        "tle_line2": "2 30087  98.3806  20.3106 0230343 117.3173 308.8319 14.35705541987151"
      },
      "geometry": {
        "type": "Point",
        "coordinates": [
          -53.19423096700822,
          81.2949022619006
        ]
      }
    },
    {
      "type": "Feature",
      "properties": {
        "norad_id": 30088,
        "name": "FENGYUN 1C DEB",
        "group": "fengyun-1c-debris",
        "lat": -9.411511181377815,
        "lon": -25.447085662241967,
        "alt_km": 822.0482967835196,
        "timestamp": "2025-12-14T22:38:41.031720+00:00",
        "meta_object_name": "FENGYUN 1C DEB",
        "meta_object_id": "1999-025QR",
        "meta_epoch": "2025-12-14T06:02:36.308832",
        "meta_mean_motion": 14.35916388,
        "meta_eccentricity": 0.02007756,
        "meta_inclination": 98.3542,
        "meta_ra_of_asc_node": 332.4864,
        "meta_arg_of_pericenter": 242.9233,
        "meta_mean_anomaly": 131.8559,
        "meta_ephemeris_type": 0,
        "meta_classification_type": "U",
        "meta_norad_cat_id": 30088,
        "meta_element_set_no": 999,
        "meta_rev_at_epoch": 98694,
        "meta_bstar": 0.00044206067,
        "meta_mean_motion_dot": 1.563e-05,
        "meta_mean_motion_ddot": 0,
        "tle_line1": "1 30088U 99025QR  25348.25180913  .00001563  00000+0  44206-3 0  9998",
        "tle_line2": "2 30088  98.3542 332.4864 0200775 242.9233 131.8559 14.35916388986944"
      },
      "geometry": {
        "type": "Point",
        "coordinates": [
          -25.447085662241967,
          -9.411511181377815
        ]
      }
    },
    {
      "type": "Feature",
      "properties": {
        "norad_id": 30089,
        "name": "FENGYUN 1C DEB",
        "group": "fengyun-1c-debris",
        "lat": -23.2525479707015,
        "lon": -101.74957039270785,
        "alt_km": 831.7965022330563,
        "timestamp": "2025-12-14T22:38:41.031731+00:00",
        "meta_object_name": "FENGYUN 1C DEB",
        "meta_object_id": "1999-025QS",
        "meta_epoch": "2025-12-14T08:12:43.825824",
        "meta_mean_motion": 14.30307655,
        "meta_eccentricity": 0.00733582,
        "meta_inclination": 98.903,
        "meta_ra_of_asc_node": 253.7733,
        "meta_arg_of_pericenter": 205.2602,
        "meta_mean_anomaly": 275.9832,
        "meta_ephemeris_type": 0,
        "meta_classification_type": "U",
        "meta_norad_cat_id": 30089,
        "meta_element_set_no": 999,
        "meta_rev_at_epoch": 98502,
        "meta_bstar": 0.00030131644,
        "meta_mean_motion_dot": 7.59e-06,
        "meta_mean_motion_ddot": 0,
        "tle_line1": "1 30089U 99025QS  25348.34217391  .00000759  00000+0  30132-3 0  9999",
        "tle_line2": "2 30089  98.9030 253.7733 0073358 205.2602 275.9832 14.30307655985028"
      },
      "geometry": {
        "type": "Point",
        "coordinates": [
          -101.74957039270785,
          -23.2525479707015
        ]
      }
    }
  ]
}